{"type": "FeatureCollection", "features": [ {"type": "Feature", "properties": {"norad_id": 66514, "name": "SENTINEL-6B", "group": "last-30-days", "lat": 39.30520812615638, "lon": -42.98494478639752, "alt_km": 1335.6831526256256, "timestamp": "2025-12-14T16:47:39.436202+00:00", "meta": {"OBJECT_NAME": "SENTINEL-6B", "OBJECT_ID": "2025-264A", "EPOCH": "2025-12-12T06:01:21.430272", "MEAN_MOTION": 12.81479583, "ECCENTRICITY": 0.00078489, "INCLINATION": 66.0385, "RA_OF_ASC_NODE": 163.4531, "ARG_OF_PERICENTER": 270.1768, "MEAN_ANOMALY": 89.8348, "EPHEMERIS_TYPE": 0, "CLASSIFICATION_TYPE": "U", "NORAD_CAT_ID": 66514, "ELEMENT_SET_NO": 999, "REV_AT_EPOCH": 322, "BSTAR": 0.00019742237, "MEAN_MOTION_DOT": -1.5e-07, "MEAN_MOTION_DDOT": 0}, "tle": {"line1": "1 66514U 25264A   25346.25094248 -.00000015  00000+0  19742-3 0  9997", "line2": "2 66514  66.0385 163.4531 0007848 270.1768  89.8348 12.81479583  3228"}}, "geometry": {"type": "Point", "coordinates": [-42.98494478639752, 39.30520812615638]}}, {"type": "Feature", "properties": {"norad_id": 66516, "name": "STARLINK-35924", "group": "last-30-days", "lat": -1.4078934968522074, "lon": -135.66791336584077, "alt_km": 443.85386961377935, "timestamp": "2025-12-14T16:47:39.436215+00:00", "meta": {"OBJECT_NAME": "STARLINK-35924", "OBJECT_ID": "2025-265A", "EPOCH": "2025-12-13T22:00:00.999936", "MEAN_MOTION": 15.40691508, "ECCENTRICITY": 0.00015814, "INCLINATION": 43.001, "RA_OF_ASC_NODE": 47.3344, "ARG_OF_PERICENTER": 260.3125, "MEAN_ANOMALY": 253.1354, "EPHEMERIS_TYPE": 0, "CLASSIFICATION_TYPE": "U", "NORAD_CAT_ID": 66516, "ELEMENT_SET_NO": 999, "REV_AT_EPOCH": 516, "BSTAR": 0.00024564795, "MEAN_MOTION_DOT": 9.968e-05, "MEAN_MOTION_DDOT": 0}, "tle": {"line1": "1 66516U 25265A   25347.91667824  .00009968  00000+0  24565-3 0  9994", "line2": "2 66516  43.0010  47.3344 0001581 260.3125 253.1354 15.40691508  5167"}}, "geometry": {"type": "Point", "coordinates": [-135.66791336584077, -1.4078934968522074]}}, {"type": "Feature", "properties": {"norad_id": 66517, "name": "STARLINK-35937", "group": "last-30-days", "lat": -38.88997002876763, "lon": -17.399164651713345, "alt_km": 416.98933192842287, "timestamp": "2025-12-14T16:47:39.436225+00:00", "meta": {"OBJECT_NAME": "STARLINK-35937", "OBJECT_ID": "2025-265B", "EPOCH": "2025-12-13T20:59:08.712960", "MEAN_MOTION": 15.50577777, "ECCENTRICITY": 0.00013441, "INCLINATION": 42.9996, "RA_OF_ASC_NODE": 47.383, "ARG_OF_PERICENTER": 278.4423, "MEAN_ANOMALY": 81.6285, "EPHEMERIS_TYPE": 0, "CLASSIFICATION_TYPE": "U", "NORAD_CAT_ID": 66517, "ELEMENT_SET_NO": 999, "REV_AT_EPOCH": 393, "BSTAR": 0.0012295407, "MEAN_MOTION_DOT": 0.00072457, "MEAN_MOTION_DDOT": 0}, "tle": {"line1": "1 66517U 25265B   25347.87440640  .00072457  00000+0  12295-2 0  9994", "line2": "2 66517  42.9996  47.3830 0001344 278.4423  81.6285 15.50577777  3939"}}, "geometry": {"type": "Point", "coordinates": [-17.399164651713345, -38.88997002876763]}}, {"type": "Feature", "properties": {"norad_id": 66518, "name": "STARLINK-35962", "group": "last-30-days", "lat": -39.700267924562475, "lon": -20.43469452206157, "alt_km": 419.4930789913933, "timestamp": "2025-12-14T16:47:39.436261+00:00", "meta": {"OBJECT_NAME": "STARLINK-35962", "OBJECT_ID": "2025-265C", "EPOCH": "2025-12-13T11:42:14.743296", "MEAN_MOTION": 15.49994036, "ECCENTRICITY": 0.00032827, "INCLINATION": 43.0004, "RA_OF_ASC_NODE": 49.6381, "ARG_OF_PERICENTER": 253.3389, "MEAN_ANOMALY": 106.7111, "EPHEMERIS_TYPE": 0, "CLASSIFICATION_TYPE": "U", "NORAD_CAT_ID": 66518, "ELEMENT_SET_NO": 999, "REV_AT_EPOCH": 387, "BSTAR": -0.0037353043, "MEAN_MOTION_DOT": -0.00209379, "MEAN_MOTION_DDOT": 0}, "tle": {"line1": "1 66518U 25265C   25347.48767064 -.00209379  00000+0 -37353-2 0  9993", "line2": "2 66518  43.0004  49.6381 0003282 253.3389 106.7111 15.49994036  3873"}}, "geometry": {"type": "Point", "coordinates": [-20.43469452206157, -39.700267924562475]}}, {"type": "Feature", "properties": {"norad_id": 66519, "name": "STARLINK-35931", "group": "last-30-days", "lat": -37.39283399702537, "lon": -12.56865937916689, "alt_km": 415.56408206552805, "timestamp": "2025-12-14T16:47:39.436272+00:00", "meta": {"OBJECT_NAME": "STARLINK-35931", "OBJECT_ID": "2025-265D", "EPOCH": "2025-12-13T20:58:10.144992", "MEAN_MOTION": 15.50630966, "ECCENTRICITY": 0.00026313, "INCLINATION": 43, "RA_OF_ASC_NODE": 47.3764, "ARG_OF_PERICENTER": 293.559, "MEAN_ANOMALY": 66.4994, "EPHEMERIS_TYPE": 0, "CLASSIFICATION_TYPE": "U", "NORAD_CAT_ID": 66519, "ELEMENT_SET_NO": 999, "REV_AT_EPOCH": 393, "BSTAR": 0.0023654538, "MEAN_MOTION_DOT": 0.00141227, "MEAN_MOTION_DDOT": 0}, "tle": {"line1": "1 66519U 25265D   25347.87372853  .00141227  00000+0  23655-2 0  9990", "line2": "2 66519  43.0000  47.3764 0002631 293.5590  66.4994 15.50630966  3936"}}, "geometry": {"type": "Point", "coordinates": [-12.56865937916689, -37.39283399702537]}}, {"type": "Feature", "properties": {"norad_id": 66520, "name": "STARLINK-35952", "group": "last-30-days", "lat": -32.41958010033405, "lon": -94.33786261908779, "alt_km": 446.5698670805468, "timestamp": "2025-12-14T16:47:39.436283+00:00", "meta": {"OBJECT_NAME": "STARLINK-35952", "OBJECT_ID": "2025-265E", "EPOCH": "2025-12-13T22:00:00.999936", "MEAN_MOTION": 15.40674169, "ECCENTRICITY": 0.00011503, "INCLINATION": 43.0006, "RA_OF_ASC_NODE": 47.2124, "ARG_OF_PERICENTER": 289.3966, "MEAN_ANOMALY": 273.9073, "EPHEMERIS_TYPE": 0, "CLASSIFICATION_TYPE": "U", "NORAD_CAT_ID": 66520, "ELEMENT_SET_NO": 999, "REV_AT_EPOCH": 518, "BSTAR": 0.00024557537, "MEAN_MOTION_DOT": 9.959e-05, "MEAN_MOTION_DDOT": 0}, "tle": {"line1": "1 66520U 25265E   25347.91667824  .00009959  00000+0  24558-3 0  9991", "line2": "2 66520  43.0006  47.2124 0001150 289.3966 273.9073 15.40674169  5182"}}, "geometry": {"type": "Point", "coordinates": [-94.33786261908779, -32.41958010033405]}}, {"type": "Feature", "properties": {"norad_id": 66521, "name": "STARLINK-35915", "group": "last-30-days", "lat": -35.873938765102984, "lon": -8.374068850340269, "alt_km": 416.7285429110052, "timestamp": "2025-12-14T16:47:39.436293+00:00", "meta": {"OBJECT_NAME": "STARLINK-35915", "OBJECT_ID": "2025-265F", "EPOCH": "2025-12-13T20:57:10.010592", "MEAN_MOTION": 15.50591008, "ECCENTRICITY": 0.00012565, "INCLINATION": 42.9979, "RA_OF_ASC_NODE": 47.3717, "ARG_OF_PERICENTER": 279.8468, "MEAN_ANOMALY": 80.225, "EPHEMERIS_TYPE": 0, "CLASSIFICATION_TYPE": "U", "NORAD_CAT_ID": 66521, "ELEMENT_SET_NO": 999, "REV_AT_EPOCH": 393, "BSTAR": 0.0017755189, "MEAN_MOTION_DOT": 0.00105276, "MEAN_MOTION_DDOT": 0}, "tle": {"line1": "1 66521U 25265F   25347.87303253  .00105276  00000+0  17755-2 0  9999", "line2": "2 66521  42.9979  47.3717 0001256 279.8468  80.2250 15.50591008  3935"}}, "geometry": {"type": "Point", "coordinates": [-8.374068850340269, -35.873938765102984]}}, {"type": "Feature", "properties": {"norad_id": 66522, "name": "STARLINK-35946", "group": "last-30-days", "lat": -35.02649271892602, "lon": -6.250149666335438, "alt_km": 416.36130748724827, "timestamp": "2025-12-14T16:47:39.436305+00:00", "meta": {"OBJECT_NAME": "STARLINK-35946", "OBJECT_ID": "2025-265G", "EPOCH": "2025-12-13T20:56:40.771968", "MEAN_MOTION": 15.50588868, "ECCENTRICITY": 0.00016235, "INCLINATION": 43, "RA_OF_ASC_NODE": 47.3672, "ARG_OF_PERICENTER": 317.0617, "MEAN_ANOMALY": 43.0117, "EPHEMERIS_TYPE": 0, "CLASSIFICATION_TYPE": "U", "NORAD_CAT_ID": 66522, "ELEMENT_SET_NO": 999, "REV_AT_EPOCH": 393, "BSTAR": 0.0021702645, "MEAN_MOTION_DOT": 0.00129144, "MEAN_MOTION_DDOT": 0}, "tle": {"line1": "1 66522U 25265G   25347.87269412  .00129144  00000+0  21703-2 0  9996", "line2": "2 66522  43.0000  47.3672 0001623 317.0617  43.0117 15.50588868  3931"}}, "geometry": {"type": "Point", "coordinates": [-6.250149666335438, -35.02649271892602]}}, {"type": "Feature", "properties": {"norad_id": 66523, "name": "STARLINK-35969", "group": "last-30-days", "lat": -34.20145642467238, "lon": -4.307110984660465, "alt_km": 414.98813613866423, "timestamp": "2025-12-14T16:47:39.436316+00:00", "meta": {"OBJECT_NAME": "STARLINK-35969", "OBJECT_ID": "2025-265H", "EPOCH": "2025-12-13T20:56:10.563936", "MEAN_MOTION": 15.50583384, "ECCENTRICITY": 0.00038739, "INCLINATION": 43.0001, "RA_OF_ASC_NODE": 47.3654, "ARG_OF_PERICENTER": 292.2096, "MEAN_ANOMALY": 67.8353, "EPHEMERIS_TYPE": 0, "CLASSIFICATION_TYPE": "U", "NORAD_CAT_ID": 66523, "ELEMENT_SET_NO": 999, "REV_AT_EPOCH": 393, "BSTAR": 0.0013707257, "MEAN_MOTION_DOT": 0.00080936, "MEAN_MOTION_DDOT": 0}, "tle": {"line1": "1 66523U 25265H   25347.87234449  .00080936  00000+0  13707-2 0  9999", "line2": "2 66523  43.0001  47.3654 0003873 292.2096  67.8353 15.50583384  3931"}}, "geometry": {"type": "Point", "coordinates": [-4.307110984660465, -34.20145642467238]}}, {"type": "Feature", "properties": {"norad_id": 66524, "name": "STARLINK-35687", "group": "last-30-days", "lat": -18.025218734205637, "lon": -116.8031283264251, "alt_km": 445.6667550550219, "timestamp": "2025-12-14T16:47:39.436326+00:00", "meta": {"OBJECT_NAME": "STARLINK-35687", "OBJECT_ID": "2025-265J", "EPOCH": "2025-12-13T22:00:00.999936", "MEAN_MOTION": 15.40684006, "ECCENTRICITY": 0.00012289, "INCLINATION": 43.0008, "RA_OF_ASC_NODE": 47.2724, "ARG_OF_PERICENTER": 279.1697, "MEAN_ANOMALY": 259.2431, "EPHEMERIS_TYPE": 0, "CLASSIFICATION_TYPE": "U", "NORAD_CAT_ID": 66524, "ELEMENT_SET_NO": 999, "REV_AT_EPOCH": 518, "BSTAR": 0.00010241983, "MEAN_MOTION_DOT": 3.975e-05, "MEAN_MOTION_DDOT": 0}, "tle": {"line1": "1 66524U 25265J   25347.91667824  .00003975  00000+0  10242-3 0  9992", "line2": "2 66524  43.0008  47.2724 0001228 279.1697 259.2431 15.40684006  5184"}}, "geometry": {"type": "Point", "coordinates": [-116.8031283264251, -18.025218734205637]}}]}